OBJECT_NAME,OBJECT_ID,EPOCH,MEAN_MOTION,ECCENTRICITY,INCLINATION,RA_OF_ASC_NODE,ARG_OF_PERICENTER,MEAN_ANOMALY,EPHEMERIS_TYPE,CLASSIFICATION_TYPE,NORAD_CAT_ID,ELEMENT_SET_NO,REV_AT_EPOCH,BSTAR,MEAN_MOTION_DOT,MEAN_MOTION_DDOT
TOMORROW-S1,2024-149M,2026-06-10T11:26:56.317344,15.32624612,.0001022,97.3750,241.9707,256.9582,103.1546,0,U,60479,999,10106,.22651E-3,.7058E-4,0
FLOCK 4BE-18,2024-149N,2026-06-10T04:49:32.943072,15.41635789,.0002389,97.3729,244.8588,270.0697,90.0276,0,U,60480,999,10123,.39459E-3,.16547E-3,0
FLOCK 4BE-7,2024-149P,2026-06-10T11:04:21.695808,15.40043307,.0001569,97.3757,244.4744,276.9044,83.2024,0,U,60481,999,10121,.49966E-3,.19907E-3,0
TOMORROW-S2,2024-149T,2026-06-09T18:56:53.424672,15.32641135,.00013708,97.3815,241.7675,320.4268,39.6873,0,U,60485,999,10095,.22648776E-3,.7061E-4,0
FLOCK 4BE-36,2024-149U,2026-06-10T12:01:13.283616,15.42516861,.0002136,97.3745,245.8501,291.3936,68.7084,0,U,60486,999,10132,.33052E-3,.14255E-3,0
FLOCK 4BE-25,2024-149V,2026-06-10T04:40:15.267360,15.38659096,.0000806,97.3798,244.2985,269.8112,90.3041,0,U,60487,999,10116,.34336E-3,.13036E-3,0
FLOCK 4BE-31,2024-149W,2026-06-10T05:07:29.455104,15.43823863,.000107,97.3798,246.3977,294.2450,65.8686,0,U,60488,999,10130,.42066E-3,.18993E-3,0
FLOCK 4BE-20,2024-149X,2026-06-10T03:42:31.224384,15.37878177,.0002207,97.3696,243.1552,290.2045,69.8963,0,U,60489,999,10113,.35014E-3,.12962E-3,0
FLOCK 4BE-23,2024-149Y,2026-06-10T04:59:40.136352,15.37501624,.0001919,97.3778,243.5812,303.7041,56.4021,0,U,60490,999,10112,.32442E-3,.11856E-3,0
FLOCK 4BE-15,2024-149Z,2026-06-10T11:26:03.729120,15.58574418,.0002303,97.3687,246.6120,252.6994,107.4011,0,U,60491,999,10138,.10833E-2,.83529E-3,0
FLOCK 4BE-17,2024-149AA,2026-06-10T04:50:34.051200,15.39587622,.0001616,97.3773,244.5177,276.8581,83.2481,0,U,60492,999,10118,.35086E-3,.13735E-3,0
NUSAT-50 (NANCY ROMAN),2024-149AB,2026-06-10T11:55:04.917216,15.29739140,.0002842,97.3787,242.7995,195.6913,164.4240,0,U,60493,999,10110,.29539E-3,.8436E-4,0
FLOCK 4BE-22,2024-149AC,2026-06-10T10:47:00.853152,15.40959805,.0002127,97.3734,244.9475,293.3642,66.7381,0,U,60494,999,10126,.35398E-3,.14502E-3,0
FLOCK 4BE-34,2024-149AD,2026-06-10T11:11:41.705088,15.40965950,.0002061,97.3781,245.7831,309.9498,50.1567,0,U,60495,999,10129,.36506E-3,.14962E-3,0
TYCHE,2024-149AE,2026-06-10T10:43:40.389600,15.25932660,.0000743,97.3755,239.3530,327.7457,32.3735,0,U,60496,999,10087,.15713E-3,.3959E-4,0
FLOCK 4BE-32,2024-149AF,2026-06-10T12:06:05.971392,15.41934996,.0002154,97.3720,245.3602,296.8758,63.2269,0,U,60497,999,10130,.3931E-3,.16649E-3,0
NUSAT-48 (HENRIETTA LEAVITT),2024-149AG,2026-06-10T11:38:58.153056,15.30003790,.000254,97.3914,243.0194,311.6205,48.4818,0,U,60498,999,10111,.29392E-3,.8462E-4,0
FLOCK 4BE-30,2024-149AH,2026-06-10T12:04:43.189824,15.54863623,.0003317,97.3779,246.8050,239.4462,120.6465,0,U,60499,999,10073,.16397E-2,.110651E-2,0
NUSAT-49 (KLARA DAN VON NEUMANN),2024-149AJ,2026-06-10T12:41:53.363904,15.29834946,.0001553,97.3781,242.8632,13.7339,346.3944,0,U,60500,999,10111,.26339E-3,.7535E-4,0
FLOCK 4BE-11,2024-149AK,2026-06-10T12:03:27.377280,15.42762344,.0002312,97.3701,245.5823,295.5432,64.5577,0,U,60501,999,10132,.35764E-3,.15562E-3,0
YAM-7,2024-149AN,2026-06-10T11:01:30.372384,15.31726634,.0002433,97.3783,241.7366,343.9978,16.1186,0,U,60504,999,10102,.21756E-3,.6587E-4,0
FLOCK 4BE-24,2024-149AP,2026-06-10T03:57:37.595808,15.42816293,.0002552,97.3712,245.4943,311.8242,48.2787,0,U,60505,999,10128,.43183E-3,.18851E-3,0
LUR-1,2024-149AQ,2026-06-10T04:20:02.643360,15.30015041,.0003365,97.3738,240.0598,352.2761,7.8428,0,U,60506,999,10090,.21893E-3,.6285E-4,0
TANAGER-1,2024-149AR,2026-06-09T18:36:55.854144,15.44925871,.0003427,97.2735,255.0264,332.6455,27.4613,0,U,60507,999,10189,.60186E-4,.2742E-4,0
EAGLEEYE,2024-149AS,2026-06-10T05:22:50.659680,15.69668365,.0003434,97.3717,254.1839,255.3748,104.7134,0,U,60508,999,10184,.77403E-3,.92367E-3,0
FLOCK 4BE-29,2024-149AT,2026-06-10T12:06:58.008384,15.43926186,.0001585,97.3808,247.2779,340.1741,19.9445,0,U,60509,999,10138,.35404E-3,.1602E-3,0
TRANSPORTER-11 OBJECT AU,2024-149AU,2026-06-10T11:53:57.509664,15.40036064,.0002467,97.3730,245.1636,327.3764,32.7329,0,U,60510,999,10128,.3268E-3,.12977E-3,0
FLOCK 4BE-2,2024-149AV,2026-06-10T11:37:15.674016,15.51990332,.0002647,97.3833,248.5911,282.8164,77.2792,0,U,60511,999,10146,.85314E-3,.5147E-3,0
FLOCK 4BE-13,2024-149AW,2026-06-10T11:18:22.364352,15.41710093,.0002796,97.3719,245.8133,296.8072,63.2889,0,U,60512,999,10133,.31879E-3,.1338E-3,0
