TOMORROW-S1             
1 60479U 24149M   26161.47704071  .00007058  00000+0  22651-3 0  9990
2 60479  97.3750 241.9707 0001022 256.9582 103.1546 15.32624612101061
FLOCK 4BE-18            
1 60480U 24149N   26161.20107573  .00016547  00000+0  39459-3 0  9994
2 60480  97.3729 244.8588 0002389 270.0697  90.0276 15.41635789101239
FLOCK 4BE-7             
1 60481U 24149P   26161.46136222  .00019907  00000+0  49966-3 0  9993
2 60481  97.3757 244.4744 0001569 276.9044  83.2024 15.40043307101212
TOMORROW-S2             
1 60485U 24149T   26160.78950723  .00007061  00000+0  22649-3 0  9998
2 60485  97.3815 241.7675 0001370 320.4268  39.6873 15.32641135100958
FLOCK 4BE-36            
1 60486U 24149U   26161.50084819  .00014255  00000+0  33052-3 0  9997
2 60486  97.3745 245.8501 0002136 291.3936  68.7084 15.42516861101320
FLOCK 4BE-25            
1 60487U 24149V   26161.19462115  .00013036  00000+0  34336-3 0  9994
2 60487  97.3798 244.2985 0000806 269.8112  90.3041 15.38659096101165
FLOCK 4BE-31            
1 60488U 24149W   26161.21353536  .00018993  00000+0  42066-3 0  9990
2 60488  97.3798 246.3977 0001070 294.2450  65.8686 15.43823863101300
FLOCK 4BE-20            
1 60489U 24149X   26161.15452806  .00012962  00000+0  35014-3 0  9999
2 60489  97.3696 243.1552 0002207 290.2045  69.8963 15.37878177101135
FLOCK 4BE-23            
1 60490U 24149Y   26161.20810343  .00011856  00000+0  32442-3 0  9994
2 60490  97.3778 243.5812 0001919 303.7041  56.4021 15.37501624101122
FLOCK 4BE-15            
1 60491U 24149Z   26161.47643205  .00083529  00000+0  10833-2 0  9990
2 60491  97.3687 246.6120 0002303 252.6994 107.4011 15.58574418101383
FLOCK 4BE-17            
1 60492U 24149AA  26161.20178300  .00013735  00000+0  35086-3 0  9991
2 60492  97.3773 244.5177 0001616 276.8581  83.2481 15.39587622101185
NUSAT-50 (NANCY ROMAN)  
1 60493U 24149AB  26161.49658469  .00008436  00000+0  29539-3 0  9990
2 60493  97.3787 242.7995 0002842 195.6913 164.4240 15.29739140101108
FLOCK 4BE-22            
1 60494U 24149AC  26161.44931543  .00014502  00000+0  35398-3 0  9994
2 60494  97.3734 244.9475 0002127 293.3642  66.7381 15.40959805101261
FLOCK 4BE-34            
1 60495U 24149AD  26161.46645492  .00014962  00000+0  36506-3 0  9994
2 60495  97.3781 245.7831 0002061 309.9498  50.1567 15.40965950101293
TYCHE                   
1 60496U 24149AE  26161.44699525  .00003959  00000+0  15713-3 0  9990
2 60496  97.3755 239.3530 0000743 327.7457  32.3735 15.25932660100875
FLOCK 4BE-32            
1 60497U 24149AF  26161.50423578  .00016649  00000+0  39310-3 0  9990
2 60497  97.3720 245.3602 0002154 296.8758  63.2269 15.41934996101309
NUSAT-48 (HENRIETTA LE*)
1 60498U 24149AG  26161.48539529  .00008462  00000+0  29392-3 0  9995
2 60498  97.3914 243.0194 0002540 311.6205  48.4818 15.30003790101119
FLOCK 4BE-30            
1 60499U 24149AH  26161.50327766  .00110651  00000+0  16397-2 0  9991
2 60499  97.3779 246.8050 0003317 239.4462 120.6465 15.54863623100739
NUSAT-49 (KLARA DAN VO*)
1 60500U 24149AJ  26161.52908986  .00007535  00000+0  26339-3 0  9999
2 60500  97.3781 242.8632 0001553  13.7339 346.3944 15.29834946101113
FLOCK 4BE-11            
1 60501U 24149AK  26161.50240020  .00015562  00000+0  35764-3 0  9997
2 60501  97.3701 245.5823 0002312 295.5432  64.5577 15.42762344101327
YAM-7                   
1 60504U 24149AN  26161.45937931  .00006587  00000+0  21756-3 0  9991
2 60504  97.3783 241.7366 0002433 343.9978  16.1186 15.31726634101023
FLOCK 4BE-24            
1 60505U 24149AP  26161.16501847  .00018851  00000+0  43183-3 0  9998
2 60505  97.3712 245.4943 0002552 311.8242  48.2787 15.42816293101282
LUR-1                   
1 60506U 24149AQ  26161.18058615  .00006285  00000+0  21893-3 0  9993
2 60506  97.3738 240.0598 0003365 352.2761   7.8428 15.30015041100906
TANAGER-1               
1 60507U 24149AR  26160.77564646  .00002742  00000+0  60186-4 0  9997
2 60507  97.2735 255.0264 0003427 332.6455  27.4613 15.44925871101899
EAGLEEYE                
1 60508U 24149AS  26161.22419745  .00092367  00000+0  77403-3 0  9999
2 60508  97.3717 254.1839 0003434 255.3748 104.7134 15.69668365101844
FLOCK 4BE-29            
1 60509U 24149AT  26161.50483806  .00016020  00000+0  35404-3 0  9997
2 60509  97.3808 247.2779 0001585 340.1741  19.9445 15.43926186101384
TRANSPORTER-11 OBJECT AU
1 60510U 24149AU  26161.49580451  .00012977  00000+0  32680-3 0  9991
2 60510  97.3730 245.1636 0002467 327.3764  32.7329 15.40036064101288
FLOCK 4BE-2             
1 60511U 24149AV  26161.48420919  .00051470  00000+0  85314-3 0  9996
2 60511  97.3833 248.5911 0002647 282.8164  77.2792 15.51990332101462
FLOCK 4BE-13            
1 60512U 24149AW  26161.47109218  .00013380  00000+0  31879-3 0  9997
2 60512  97.3719 245.8133 0002796 296.8072  63.2889 15.41710093101331
